{
  "type": "FeatureCollection",
  "features": [
    {
      "type": "Feature",
      "properties": {
        "norad_id": 28051,
        "name": "IRS-P6 (RESOURCESAT-1)",
        "group": "resource",
        "lat": 49.09928822916117,
        "lon": -151.4326865943008,
        "alt_km": 756.0752039454301,
        "timestamp": "2025-12-04T03:47:54.210158+00:00",
        "meta_object_name": "IRS-P6 (RESOURCESAT-1)",
        "meta_object_id": "2003-046A",
        "meta_epoch": "2025-12-03T21:02:07.174752",
        "meta_mean_motion": 14.36067957,
        "meta_eccentricity": 0.006368,
        "meta_inclination": 98.219,
        "meta_ra_of_asc_node": 18.6938,
        "meta_arg_of_pericenter": 207.3789,
        "meta_mean_anomaly": 267.4791,
        "meta_ephemeris_type": 0,
        "meta_classification_type": "U",
        "meta_norad_cat_id": 28051,
        "meta_element_set_no": 999,
        "meta_rev_at_epoch": 15249,
        "meta_bstar": 0.000138,
        "meta_mean_motion_dot": 3.7e-06,
        "meta_mean_motion_ddot": 0,
        "tle_line1": "1 28051U 03046A   25337.87647193  .00000370  00000+0  13800-3 0  9998",
        "tle_line2": "2 28051  98.2190  18.6938 0063680 207.3789 267.4791 14.36067957152496"
      },
      "geometry": {
        "type": "Point",
        "coordinates": [
          -151.4326865943008,
          49.09928822916117
        ]
      }
    },
    {
      "type": "Feature",
      "properties": {
        "norad_id": 28220,
        "name": "SHIYAN-1 (SY-1)",
        "group": "resource",
        "lat": 48.85707858464697,
        "lon": 30.052865174665886,
        "alt_km": 475.4214948177132,
        "timestamp": "2025-12-04T03:47:54.210169+00:00",
        "meta_object_name": "SHIYAN-1 (SY-1)",
        "meta_object_id": "2004-012A",
        "meta_epoch": "2025-12-03T18:09:04.721760",
        "meta_mean_motion": 15.27770603,
        "meta_eccentricity": 0.0006281,
        "meta_inclination": 97.8956,
        "meta_ra_of_asc_node": 38.7673,
        "meta_arg_of_pericenter": 358.887,
        "meta_mean_anomaly": 1.2352,
        "meta_ephemeris_type": 0,
        "meta_classification_type": "U",
        "meta_norad_cat_id": 28220,
        "meta_element_set_no": 999,
        "meta_rev_at_epoch": 18119,
        "meta_bstar": 0.00065917,
        "meta_mean_motion_dot": 0.00017834,
        "meta_mean_motion_ddot": 0,
        "tle_line1": "1 28220U 04012A   25337.75630465  .00017834  00000+0  65917-3 0  9990",
        "tle_line2": "2 28220  97.8956  38.7673 0006281 358.8870   1.2352 15.27770603181191"
      },
      "geometry": {
        "type": "Point",
        "coordinates": [
          30.052865174665886,
          48.85707858464697
        ]
      }
    },
    {
      "type": "Feature",
      "properties": {
        "norad_id": 28376,
        "name": "AURA",
        "group": "resource",
        "lat": -9.347287917779997,
        "lon": -70.2745076847431,
        "alt_km": 694.4684467044463,
        "timestamp": "2025-12-04T03:47:54.210180+00:00",
        "meta_object_name": "AURA",
        "meta_object_id": "2004-026A",
        "meta_epoch": "2025-12-03T17:58:43.810752",
        "meta_mean_motion": 14.60911342,
        "meta_eccentricity": 0.0001079,
        "meta_inclination": 98.3171,
        "meta_ra_of_asc_node": 287.9348,
        "meta_arg_of_pericenter": 91.3227,
        "meta_mean_anomaly": 268.8097,
        "meta_ephemeris_type": 0,
        "meta_classification_type": "U",
        "meta_norad_cat_id": 28376,
        "meta_element_set_no": 999,
        "meta_rev_at_epoch": 13767,
        "meta_bstar": 0.00035516,
        "meta_mean_motion_dot": 1.691e-05,
        "meta_mean_motion_ddot": 0,
        "tle_line1": "1 28376U 04026A   25337.74911818  .00001691  00000+0  35516-3 0  9996",
        "tle_line2": "2 28376  98.3171 287.9348 0001079  91.3227 268.8097 14.60911342137674"
      },
      "geometry": {
        "type": "Point",
        "coordinates": [
          -70.2745076847431,
          -9.347287917779997
        ]
      }
    },
    {
      "type": "Feature",
      "properties": {
        "norad_id": 28649,
        "name": "IRS-P5 (CARTOSAT-1)",
        "group": "resource",
        "lat": 15.39053248390924,
        "lon": 2.8601166400121203,
        "alt_km": 596.6648116447404,
        "timestamp": "2025-12-04T03:47:54.210191+00:00",
        "meta_object_name": "IRS-P5 (CARTOSAT-1)",
        "meta_object_id": "2005-017A",
        "meta_epoch": "2025-12-03T19:40:19.814592",
        "meta_mean_motion": 14.90354061,
        "meta_eccentricity": 0.0001741,
        "meta_inclination": 97.55,
        "meta_ra_of_asc_node": 4.6288,
        "meta_arg_of_pericenter": 51.5682,
        "meta_mean_anomaly": 308.5693,
        "meta_ephemeris_type": 0,
        "meta_classification_type": "U",
        "meta_norad_cat_id": 28649,
        "meta_element_set_no": 999,
        "meta_rev_at_epoch": 11471,
        "meta_bstar": 0.00032669,
        "meta_mean_motion_dot": 3.126e-05,
        "meta_mean_motion_ddot": 0,
        "tle_line1": "1 28649U 05017A   25337.81967378  .00003126  00000+0  32669-3 0  9991",
        "tle_line2": "2 28649  97.5500   4.6288 0001741  51.5682 308.5693 14.90354061114716"
      },
      "geometry": {
        "type": "Point",
        "coordinates": [
          2.8601166400121203,
          15.39053248390924
        ]
      }
    },
    {
      "type": "Feature",
      "properties": {
        "norad_id": 28893,
        "name": "SINAH 1",
        "group": "resource",
        "lat": 74.05589572410922,
        "lon": -42.74459410431031,
        "alt_km": 667.9742358370158,
        "timestamp": "2025-12-04T03:47:54.210202+00:00",
        "meta_object_name": "SINAH 1",
        "meta_object_id": "2005-043D",
        "meta_epoch": "2025-12-03T19:07:27.372576",
        "meta_mean_motion": 14.63945754,
        "meta_eccentricity": 0.0014851,
        "meta_inclination": 98.26,
        "meta_ra_of_asc_node": 106.3305,
        "meta_arg_of_pericenter": 163.8547,
        "meta_mean_anomaly": 196.3131,
        "meta_ephemeris_type": 0,
        "meta_classification_type": "U",
        "meta_norad_cat_id": 28893,
        "meta_element_set_no": 999,
        "meta_rev_at_epoch": 7193,
        "meta_bstar": 0.00016159,
        "meta_mean_motion_dot": 7.98e-06,
        "meta_mean_motion_ddot": 0,
        "tle_line1": "1 28893U 05043D   25337.79684459  .00000798  00000+0  16159-3 0  9992",
        "tle_line2": "2 28893  98.2600 106.3305 0014851 163.8547 196.3131 14.63945754 71930"
      },
      "geometry": {
        "type": "Point",
        "coordinates": [
          -42.74459410431031,
          74.05589572410922
        ]
      }
    },
    {
      "type": "Feature",
      "properties": {
        "norad_id": 29079,
        "name": "EROS B",
        "group": "resource",
        "lat": -7.602611654431586,
        "lon": -86.642636587341,
        "alt_km": 376.5568414196932,
        "timestamp": "2025-12-04T03:47:54.210213+00:00",
        "meta_object_name": "EROS B",
        "meta_object_id": "2006-014A",
        "meta_epoch": "2025-12-03T20:51:37.766304",
        "meta_mean_motion": 15.64811749,
        "meta_eccentricity": 0.0002149,
        "meta_inclination": 97.349,
        "meta_ra_of_asc_node": 94.0431,
        "meta_arg_of_pericenter": 236.6063,
        "meta_mean_anomaly": 123.4991,
        "meta_ephemeris_type": 0,
        "meta_classification_type": "U",
        "meta_norad_cat_id": 29079,
        "meta_element_set_no": 999,
        "meta_rev_at_epoch": 8941,
        "meta_bstar": 0.0020405,
        "meta_mean_motion_dot": 0.00203072,
        "meta_mean_motion_ddot": 0,
        "tle_line1": "1 29079U 06014A   25337.86918711  .00203072  00000+0  20405-2 0  9995",
        "tle_line2": "2 29079  97.3490  94.0431 0002149 236.6063 123.4991 15.64811749 89411"
      },
      "geometry": {
        "type": "Point",
        "coordinates": [
          -86.642636587341,
          -7.602611654431586
        ]
      }
    },
    {
      "type": "Feature",
      "properties": {
        "norad_id": 29228,
        "name": "RESURS-DK 1",
        "group": "resource",
        "lat": -32.07169397685817,
        "lon": 110.77114309225304,
        "alt_km": 532.7484129081276,
        "timestamp": "2025-12-04T03:47:54.210240+00:00",
        "meta_object_name": "RESURS-DK 1",
        "meta_object_id": "2006-021A",
        "meta_epoch": "2025-12-03T18:25:27.132960",
        "meta_mean_motion": 15.12077009,
        "meta_eccentricity": 0.0007826,
        "meta_inclination": 69.9328,
        "meta_ra_of_asc_node": 125.0216,
        "meta_arg_of_pericenter": 265.182,
        "meta_mean_anomaly": 94.8452,
        "meta_ephemeris_type": 0,
        "meta_classification_type": "U",
        "meta_norad_cat_id": 29228,
        "meta_element_set_no": 999,
        "meta_rev_at_epoch": 7302,
        "meta_bstar": 0.0002822,
        "meta_mean_motion_dot": 4.765e-05,
        "meta_mean_motion_ddot": 0,
        "tle_line1": "1 29228U 06021A   25337.76767515  .00004765  00000+0  28220-3 0  9994",
        "tle_line2": "2 29228  69.9328 125.0216 0007826 265.1820  94.8452 15.12077009 73022"
      },
      "geometry": {
        "type": "Point",
        "coordinates": [
          110.77114309225304,
          -32.07169397685817
        ]
      }
    }
  ]
}